{"type": "FeatureCollection", "features": [ {"type": "Feature", "properties": {"norad_id": 33674, "name": "FENGYUN 1C DEB", "group": "fengyun-1c-debris", "lat": 10.303250596906514, "lon": 37.09758124433937, "alt_km": 1087.0244765634943, "timestamp": "2025-12-14T22:38:41.044750+00:00", "meta": {"OBJECT_NAME": "FENGYUN 1C DEB", "OBJECT_ID": "1999-025DFK", "EPOCH": "2025-12-11T02:09:33.820992", "MEAN_MOTION": 13.76876092, "ECCENTRICITY": 0.02111463, "INCLINATION": 98.6054, "RA_OF_ASC_NODE": 35.1848, "ARG_OF_PERICENTER": 244.5756, "MEAN_ANOMALY": 113.3412, "EPHEMERIS_TYPE": 0, "CLASSIFICATION_TYPE": "U", "NORAD_CAT_ID": 33674, "ELEMENT_SET_NO": 999, "REV_AT_EPOCH": 88342, "BSTAR": 0.002704931, "MEAN_MOTION_DOT": 3.101e-05, "MEAN_MOTION_DDOT": 0}, "tle": {"line1": "1 33674U 99025DFK 25345.08997478  .00003101  00000+0  27049-2 0  9997", "line2": "2 33674  98.6054  35.1848 0211146 244.5756 113.3412 13.76876092883423"}}, "geometry": {"type": "Point", "coordinates": [37.09758124433937, 10.303250596906514]}}, {"type": "Feature", "properties": {"norad_id": 33676, "name": "FENGYUN 1C DEB", "group": "fengyun-1c-debris", "lat": 78.7678451771702, "lon": -40.22217393406906, "alt_km": 627.8234567318495, "timestamp": "2025-12-14T22:38:41.044760+00:00", "meta": {"OBJECT_NAME": "FENGYUN 1C DEB", "OBJECT_ID": "1999-025DFM", "EPOCH": "2025-12-13T07:47:52.730304", "MEAN_MOTION": 14.35563077, "ECCENTRICITY": 0.02050553, "INCLINATION": 99.0961, "RA_OF_ASC_NODE": 11.8486, "ARG_OF_PERICENTER": 67.9204, "MEAN_ANOMALY": 294.3615, "EPHEMERIS_TYPE": 0, "CLASSIFICATION_TYPE": "U", "NORAD_CAT_ID": 33676, "ELEMENT_SET_NO": 999, "REV_AT_EPOCH": 65319, "BSTAR": 0.00019988849, "MEAN_MOTION_DOT": 6.76e-06, "MEAN_MOTION_DDOT": 0}, "tle": {"line1": "1 33676U 99025DFM 25347.32491586  .00000676  00000+0  19989-3 0  9996", "line2": "2 33676  99.0961  11.8486 0205055  67.9204 294.3615 14.35563077653199"}}, "geometry": {"type": "Point", "coordinates": [-40.22217393406906, 78.7678451771702]}}, {"type": "Feature", "properties": {"norad_id": 33678, "name": "FENGYUN 1C DEB", "group": "fengyun-1c-debris", "lat": 59.98698867107777, "lon": -109.39346475158985, "alt_km": 779.2209088871241, "timestamp": "2025-12-14T22:38:41.044770+00:00", "meta": {"OBJECT_NAME": "FENGYUN 1C DEB", "OBJECT_ID": "1999-025DFP", "EPOCH": "2025-12-12T21:57:49.978656", "MEAN_MOTION": 14.47346139, "ECCENTRICITY": 0.02051151, "INCLINATION": 99.0428, "RA_OF_ASC_NODE": 52.4355, "ARG_OF_PERICENTER": 236.2193, "MEAN_ANOMALY": 121.9313, "EPHEMERIS_TYPE": 0, "CLASSIFICATION_TYPE": "U", "NORAD_CAT_ID": 33678, "ELEMENT_SET_NO": 999, "REV_AT_EPOCH": 95098, "BSTAR": 0.00114502, "MEAN_MOTION_DOT": 5.405e-05, "MEAN_MOTION_DDOT": 0}, "tle": {"line1": "1 33678U 99025DFP 25346.91516179  .00005405  00000+0  11450-2 0  9997", "line2": "2 33678  99.0428  52.4355 0205115 236.2193 121.9313 14.47346139950988"}}, "geometry": {"type": "Point", "coordinates": [-109.39346475158985, 59.98698867107777]}}, {"type": "Feature", "properties": {"norad_id": 33679, "name": "FENGYUN 1C DEB", "group": "fengyun-1c-debris", "lat": 78.6971555120257, "lon": 0.4871928120782582, "alt_km": 640.5110433424325, "timestamp": "2025-12-14T22:38:41.044780+00:00", "meta": {"OBJECT_NAME": "FENGYUN 1C DEB", "OBJECT_ID": "1999-025DFQ", "EPOCH": "2025-12-13T11:06:48.969792", "MEAN_MOTION": 15.026568, "ECCENTRICITY": 0.01483147, "INCLINATION": 99.3525, "RA_OF_ASC_NODE": 54.2486, "ARG_OF_PERICENTER": 297.3985, "MEAN_ANOMALY": 61.2211, "EPHEMERIS_TYPE": 0, "CLASSIFICATION_TYPE": "U", "NORAD_CAT_ID": 33679, "ELEMENT_SET_NO": 999, "REV_AT_EPOCH": 94134, "BSTAR": 0.0022719782, "MEAN_MOTION_DOT": 0.00038602, "MEAN_MOTION_DDOT": 0}, "tle": {"line1": "1 33679U 99025DFQ 25347.46306678  .00038602  00000+0  22720-2 0  9997", "line2": "2 33679  99.3525  54.2486 0148314 297.3985  61.2211 15.02656800941343"}}, "geometry": {"type": "Point", "coordinates": [0.4871928120782582, 78.6971555120257]}}, {"type": "Feature", "properties": {"norad_id": 33682, "name": "FENGYUN 1C DEB", "group": "fengyun-1c-debris", "lat": 6.892498882687269, "lon": 34.54091731004718, "alt_km": 797.4661461777459, "timestamp": "2025-12-14T22:38:41.044790+00:00", "meta": {"OBJECT_NAME": "FENGYUN 1C DEB", "OBJECT_ID": "1999-025DFT", "EPOCH": "2025-12-14T02:24:51.967872", "MEAN_MOTION": 14.26692222, "ECCENTRICITY": 0.00285034, "INCLINATION": 99.4217, "RA_OF_ASC_NODE": 34.7844, "ARG_OF_PERICENTER": 78.8285, "MEAN_ANOMALY": 281.6095, "EPHEMERIS_TYPE": 0, "CLASSIFICATION_TYPE": "U", "NORAD_CAT_ID": 33682, "ELEMENT_SET_NO": 999, "REV_AT_EPOCH": 91717, "BSTAR": 0.0016135582, "MEAN_MOTION_DOT": 3.871e-05, "MEAN_MOTION_DDOT": 0}, "tle": {"line1": "1 33682U 99025DFT 25348.10060148  .00003871  00000+0  16136-2 0  9996", "line2": "2 33682  99.4217  34.7844 0028503  78.8285 281.6095 14.26692222917174"}}, "geometry": {"type": "Point", "coordinates": [34.54091731004718, 6.892498882687269]}}, {"type": "Feature", "properties": {"norad_id": 33684, "name": "FENGYUN 1C DEB", "group": "fengyun-1c-debris", "lat": 1.6289517666750988, "lon": 44.52675307648542, "alt_km": 474.30188039527275, "timestamp": "2025-12-14T22:38:41.044801+00:00", "meta": {"OBJECT_NAME": "FENGYUN 1C DEB", "OBJECT_ID": "1999-025DFV", "EPOCH": "2025-12-13T23:49:00.638400", "MEAN_MOTION": 14.73149672, "ECCENTRICITY": 0.02872912, "INCLINATION": 99.0658, "RA_OF_ASC_NODE": 43.7241, "ARG_OF_PERICENTER": 336.6485, "MEAN_ANOMALY": 22.1882, "EPHEMERIS_TYPE": 0, "CLASSIFICATION_TYPE": "U", "NORAD_CAT_ID": 33684, "ELEMENT_SET_NO": 999, "REV_AT_EPOCH": 93007, "BSTAR": 0.00092181897, "MEAN_MOTION_DOT": 0.00011484, "MEAN_MOTION_DDOT": 0}, "tle": {"line1": "1 33684U 99025DFV 25347.99236850  .00011484  00000+0  92182-3 0  9994", "line2": "2 33684  99.0658  43.7241 0287291 336.6485  22.1882 14.73149672930074"}}, "geometry": {"type": "Point", "coordinates": [44.52675307648542, 1.6289517666750988]}}, {"type": "Feature", "properties": {"norad_id": 33687, "name": "FENGYUN 1C DEB", "group": "fengyun-1c-debris", "lat": 27.68687284230264, "lon": 179.86188089905502, "alt_km": 587.5555113943137, "timestamp": "2025-12-14T22:38:41.044811+00:00", "meta": {"OBJECT_NAME": "FENGYUN 1C DEB", "OBJECT_ID": "1999-025DFY", "EPOCH": "2025-12-10T18:21:11.232576", "MEAN_MOTION": 15.18394694, "ECCENTRICITY": 0.01162924, "INCLINATION": 98.9979, "RA_OF_ASC_NODE": 350.1242, "ARG_OF_PERICENTER": 343.0209, "MEAN_ANOMALY": 16.7142, "EPHEMERIS_TYPE": 0, "CLASSIFICATION_TYPE": "U", "NORAD_CAT_ID": 33687, "ELEMENT_SET_NO": 999, "REV_AT_EPOCH": 71478, "BSTAR": 0.0024359908, "MEAN_MOTION_DOT": 0.0006019, "MEAN_MOTION_DDOT": 0}, "tle": {"line1": "1 33687U 99025DFY 25344.76471334  .00060190  00000+0  24360-2 0  9997", "line2": "2 33687  98.9979 350.1242 0116292 343.0209  16.7142 15.18394694714787"}}, "geometry": {"type": "Point", "coordinates": [179.86188089905502, 27.68687284230264]}}, {"type": "Feature", "properties": {"norad_id": 33688, "name": "FENGYUN 1C DEB", "group": "fengyun-1c-debris", "lat": 75.91210748946939, "lon": 49.51660840245604, "alt_km": 770.8786274595204, "timestamp": "2025-12-14T22:38:41.044821+00:00", "meta": {"OBJECT_NAME": "FENGYUN 1C DEB", "OBJECT_ID": "1999-025DFZ", "EPOCH": "2025-12-13T13:03:13.087008", "MEAN_MOTION": 14.45620497, "ECCENTRICITY": 0.00538014, "INCLINATION": 99.3497, "RA_OF_ASC_NODE": 89.0096, "ARG_OF_PERICENTER": 260.4671, "MEAN_ANOMALY": 99.0435, "EPHEMERIS_TYPE": 0, "CLASSIFICATION_TYPE": "U", "NORAD_CAT_ID": 33688, "ELEMENT_SET_NO": 999, "REV_AT_EPOCH": 91493, "BSTAR": 0.003412042, "MEAN_MOTION_DOT": 0.00012244, "MEAN_MOTION_DDOT": 0}, "tle": {"line1": "1 33688U 99025DFZ 25347.54390147  .00012244  00000+0  34120-2 0  9991", "line2": "2 33688  99.3497  89.0096 0053801 260.4671  99.0435 14.45620497914934"}}, "geometry": {"type": "Point", "coordinates": [49.51660840245604, 75.91210748946939]}}, {"type": "Feature", "properties": {"norad_id": 33689, "name": "FENGYUN 1C DEB", "group": "fengyun-1c-debris", "lat": 66.84786690352439, "lon": -160.2381484057452, "alt_km": 706.4775454501414, "timestamp": "2025-12-14T22:38:41.044831+00:00", "meta": {"OBJECT_NAME": "FENGYUN 1C DEB", "OBJECT_ID": "1999-025DGA", "EPOCH": "2025-12-07T05:58:19.079616", "MEAN_MOTION": 14.45083851, "ECCENTRICITY": 0.00480135, "INCLINATION": 99.5648, "RA_OF_ASC_NODE": 347.8823, "ARG_OF_PERICENTER": 167.5369, "MEAN_ANOMALY": 254.9476, "EPHEMERIS_TYPE": 0, "CLASSIFICATION_TYPE": "U", "NORAD_CAT_ID": 33689, "ELEMENT_SET_NO": 999, "REV_AT_EPOCH": 69451, "BSTAR": 0.0017194976, "MEAN_MOTION_DOT": 6.046e-05, "MEAN_MOTION_DDOT": 0}, "tle": {"line1": "1 33689U 99025DGA 25341.24883194  .00006046  00000+0  17195-2 0  9998", "line2": "2 33689  99.5648 347.8823 0048013 167.5369 254.9476 14.45083851694511"}}, "geometry": {"type": "Point", "coordinates": [-160.2381484057452, 66.84786690352439]}}, {"type": "Feature", "properties": {"norad_id": 33690, "name": "FENGYUN 1C DEB", "group": "fengyun-1c-debris", "lat": 20.032498145643093, "lon": -89.46882414446122, "alt_km": 730.4290941467552, "timestamp": "2025-12-14T22:38:41.044841+00:00", "meta": {"OBJECT_NAME": "FENGYUN 1C DEB", "OBJECT_ID": "1999-025DGB", "EPOCH": "2025-12-14T05:22:11.919648", "MEAN_MOTION": 14.51488544, "ECCENTRICITY": 0.003033, "INCLINATION": 98.6129, "RA_OF_ASC_NODE": 86.626, "ARG_OF_PERICENTER": 45.0398, "MEAN_ANOMALY": 315.3248, "EPHEMERIS_TYPE": 0, "CLASSIFICATION_TYPE": "U", "NORAD_CAT_ID": 33690, "ELEMENT_SET_NO": 999, "REV_AT_EPOCH": 93241, "BSTAR": 0.0022990095, "MEAN_MOTION_DOT": 9.205e-05, "MEAN_MOTION_DDOT": 0}, "tle": {"line1": "1 33690U 99025DGB 25348.22374907  .00009205  00000+0  22990-2 0  9991", "line2": "2 33690  98.6129  86.6260 0030330  45.0398 315.3248 14.51488544932413"}}, "geometry": {"type": "Point", "coordinates": [-89.46882414446122, 20.032498145643093]}}]}